[{"OBJECT_NAME":"ONEWEB-0171","OBJECT_ID":"2021-025AE","EPOCH":"2025-08-13T11:44:38.825664","MEAN_MOTION":13.13470522,"ECCENTRICITY":0.0001748,"INCLINATION":87.8979,"RA_OF_ASC_NODE":21.3744,"ARG_OF_PERICENTER":90.8556,"MEAN_ANOMALY":269.2774,"EPHEMERIS_TYPE":0,"CLASSIFICATION_TYPE":"U","NORAD_CAT_ID":48070,"ELEMENT_SET_NO":999,"REV_AT_EPOCH":21322,"BSTAR":0.00058987,"MEAN_MOTION_DOT":2.28e-6,"MEAN_MOTION_DDOT":0},{"OBJECT_NAME":"ONEWEB-0172","OBJECT_ID":"2021-025AF","EPOCH":"2025-08-13T11:15:22.344768","MEAN_MOTION":13.13471718,"ECCENTRICITY":0.0001649,"INCLINATION":87.8985,"RA_OF_ASC_NODE":21.3451,"ARG_OF_PERICENTER":90.6387,"MEAN_ANOMALY":269.4931,"EPHEMERIS_TYPE":0,"CLASSIFICATION_TYPE":"U","NORAD_CAT_ID":48071,"ELEMENT_SET_NO":999,"REV_AT_EPOCH":21411,"BSTAR":-0.00056771,"MEAN_MOTION_DOT":-1.95e-6,"MEAN_MOTION_DDOT":0},{"OBJECT_NAME":"ONEWEB-0174","OBJECT_ID":"2021-025AG","EPOCH":"2025-08-13T10:48:35.697888","MEAN_MOTION":13.13467018,"ECCENTRICITY":0.0001712,"INCLINATION":87.8984,"RA_OF_ASC_NODE":21.362,"ARG_OF_PERICENTER":98.7418,"MEAN_ANOMALY":261.3905,"EPHEMERIS_TYPE":0,"CLASSIFICATION_TYPE":"U","NORAD_CAT_ID":48072,"ELEMENT_SET_NO":999,"REV_AT_EPOCH":21343,"BSTAR":-0.00053598,"MEAN_MOTION_DOT":-1.83e-6,"MEAN_MOTION_DDOT":0},{"OBJECT_NAME":"ONEWEB-0175","OBJECT_ID":"2021-025AH","EPOCH":"2025-08-13T11:32:26.823264","MEAN_MOTION":13.13471114,"ECCENTRICITY":0.0001774,"INCLINATION":87.8982,"RA_OF_ASC_NODE":21.3206,"ARG_OF_PERICENTER":83.1246,"MEAN_ANOMALY":277.0085,"EPHEMERIS_TYPE":0,"CLASSIFICATION_TYPE":"U","NORAD_CAT_ID":48073,"ELEMENT_SET_NO":999,"REV_AT_EPOCH":21309,"BSTAR":0.00014596,"MEAN_MOTION_DOT":6.6e-7,"MEAN_MOTION_DDOT":0},{"OBJECT_NAME":"ONEWEB-0177","OBJECT_ID":"2021-025AJ","EPOCH":"2025-08-13T11:49:30.488736","MEAN_MOTION":13.13470265,"ECCENTRICITY":0.0001628,"INCLINATION":87.8987,"RA_OF_ASC_NODE":21.3338,"ARG_OF_PERICENTER":98.7565,"MEAN_ANOMALY":261.3749,"EPHEMERIS_TYPE":0,"CLASSIFICATION_TYPE":"U","NORAD_CAT_ID":48074,"ELEMENT_SET_NO":999,"REV_AT_EPOCH":21328,"BSTAR":0.00063325,"MEAN_MOTION_DOT":2.44e-6,"MEAN_MOTION_DDOT":0},{"OBJECT_NAME":"ONEWEB-0178","OBJECT_ID":"2021-025AK","EPOCH":"2025-08-13T10:26:48.573888","MEAN_MOTION":13.13470997,"ECCENTRICITY":0.0001508,"INCLINATION":87.8984,"RA_OF_ASC_NODE":21.3908,"ARG_OF_PERICENTER":86.1955,"MEAN_ANOMALY":273.9346,"EPHEMERIS_TYPE":0,"CLASSIFICATION_TYPE":"U","NORAD_CAT_ID":48075,"ELEMENT_SET_NO":999,"REV_AT_EPOCH":21332,"BSTAR":0.00043547,"MEAN_MOTION_DOT":1.72e-6,"MEAN_MOTION_DDOT":0},{"OBJECT_NAME":"ONEWEB-0108","OBJECT_ID":"2021-025AL","EPOCH":"2025-08-13T11:17:49.179840","MEAN_MOTION":13.13470364,"ECCENTRICITY":0.0001973,"INCLINATION":87.898,"RA_OF_ASC_NODE":21.3319,"ARG_OF_PERICENTER":97.8695,"MEAN_ANOMALY":262.2658,"EPHEMERIS_TYPE":0,"CLASSIFICATION_TYPE":"U","NORAD_CAT_ID":48076,"ELEMENT_SET_NO":999,"REV_AT_EPOCH":21325,"BSTAR":-0.00063945,"MEAN_MOTION_DOT":-2.21e-6,"MEAN_MOTION_DDOT":0},{"OBJECT_NAME":"ONEWEB-0169","OBJECT_ID":"2021-025AM","EPOCH":"2025-08-13T10:14:26.930976","MEAN_MOTION":13.1347096,"ECCENTRICITY":0.0001979,"INCLINATION":87.8985,"RA_OF_ASC_NODE":21.3625,"ARG_OF_PERICENTER":97.9902,"MEAN_ANOMALY":262.1452,"EPHEMERIS_TYPE":0,"CLASSIFICATION_TYPE":"U","NORAD_CAT_ID":48077,"ELEMENT_SET_NO":999,"REV_AT_EPOCH":21190,"BSTAR":0.0011253,"MEAN_MOTION_DOT":4.24e-6,"MEAN_MOTION_DDOT":0},{"OBJECT_NAME":"ONEWEB-0176","OBJECT_ID":"2021-031A","EPOCH":"2025-08-13T14:05:18.561696","MEAN_MOTION":13.14501833,"ECCENTRICITY":0.0001747,"INCLINATION":87.9077,"RA_OF_ASC_NODE":350.9174,"ARG_OF_PERICENTER":94.778,"MEAN_ANOMALY":265.3549,"EPHEMERIS_TYPE":0,"CLASSIFICATION_TYPE":"U","NORAD_CAT_ID":48210,"ELEMENT_SET_NO":999,"REV_AT_EPOCH":20790,"BSTAR":0.0002485,"MEAN_MOTION_DOT":1.05e-6,"MEAN_MOTION_DDOT":0},{"OBJECT_NAME":"ONEWEB-0184","OBJECT_ID":"2021-031B","EPOCH":"2025-08-13T07:57:39.655872","MEAN_MOTION":13.14502778,"ECCENTRICITY":0.0001581,"INCLINATION":87.9081,"RA_OF_ASC_NODE":350.9375,"ARG_OF_PERICENTER":68.7299,"MEAN_ANOMALY":291.3999,"EPHEMERIS_TYPE":0,"CLASSIFICATION_TYPE":"U","NORAD_CAT_ID":48211,"ELEMENT_SET_NO":999,"REV_AT_EPOCH":20784,"BSTAR":0.00043084,"MEAN_MOTION_DOT":1.72e-6,"MEAN_MOTION_DDOT":0},{"OBJECT_NAME":"ONEWEB-0179","OBJECT_ID":"2021-031C","EPOCH":"2025-08-13T14:33:50.518944","MEAN_MOTION":13.14503107,"ECCENTRICITY":0.0001793,"INCLINATION":87.9075,"RA_OF_ASC_NODE":350.901,"ARG_OF_PERICENTER":100.7474,"MEAN_ANOMALY":259.3858,"EPHEMERIS_TYPE":0,"CLASSIFICATION_TYPE":"U","NORAD_CAT_ID":48212,"ELEMENT_SET_NO":999,"REV_AT_EPOCH":20792,"BSTAR":-0.0004268,"MEAN_MOTION_DOT":-1.45e-6,"MEAN_MOTION_DDOT":0},{"OBJECT_NAME":"ONEWEB-0180","OBJECT_ID":"2021-031D","EPOCH":"2025-08-13T08:02:14.599680","MEAN_MOTION":13.14502752,"ECCENTRICITY":0.0001535,"INCLINATION":87.9081,"RA_OF_ASC_NODE":350.9422,"ARG_OF_PERICENTER":99.1376,"MEAN_ANOMALY":260.9928,"EPHEMERIS_TYPE":0,"CLASSIFICATION_TYPE":"U","NORAD_CAT_ID":48213,"ELEMENT_SET_NO":999,"REV_AT_EPOCH":20777,"BSTAR":0.00052039,"MEAN_MOTION_DOT":2.06e-6,"MEAN_MOTION_DDOT":0},{"OBJECT_NAME":"ONEWEB-0218","OBJECT_ID":"2021-031E","EPOCH":"2025-08-13T14:03:00.866016","MEAN_MOTION":13.1450129,"ECCENTRICITY":0.0001307,"INCLINATION":87.9083,"RA_OF_ASC_NODE":350.8933,"ARG_OF_PERICENTER":68.9511,"MEAN_ANOMALY":291.1759,"EPHEMERIS_TYPE":0,"CLASSIFICATION_TYPE":"U","NORAD_CAT_ID":48214,"ELEMENT_SET_NO":999,"REV_AT_EPOCH":20796,"BSTAR":0.00022725,"MEAN_MOTION_DOT":9.7e-7,"MEAN_MOTION_DDOT":0},{"OBJECT_NAME":"ONEWEB-0209","OBJECT_ID":"2021-031F","EPOCH":"2025-08-13T08:18:12.225312","MEAN_MOTION":13.14501598,"ECCENTRICITY":0.0001713,"INCLINATION":87.9084,"RA_OF_ASC_NODE":350.9851,"ARG_OF_PERICENTER":102.4318,"MEAN_ANOMALY":257.7004,"EPHEMERIS_TYPE":0,"CLASSIFICATION_TYPE":"U","NORAD_CAT_ID":48215,"ELEMENT_SET_NO":999,"REV_AT_EPOCH":20793,"BSTAR":0.0006111,"MEAN_MOTION_DOT":2.39e-6,"MEAN_MOTION_DDOT":0},{"OBJECT_NAME":"ONEWEB-0198","OBJECT_ID":"2021-031G","EPOCH":"2025-08-13T07:55:23.791008","MEAN_MOTION":13.14503755,"ECCENTRICITY":0.000139,"INCLINATION":87.9077,"RA_OF_ASC_NODE":350.9889,"ARG_OF_PERICENTER":94.3529,"MEAN_ANOMALY":265.7759,"EPHEMERIS_TYPE":0,"CLASSIFICATION_TYPE":"U","NORAD_CAT_ID":48216,"ELEMENT_SET_NO":999,"REV_AT_EPOCH":20804,"BSTAR":0.00049979,"MEAN_MOTION_DOT":1.98e-6,"MEAN_MOTION_DDOT":0},{"OBJECT_NAME":"ONEWEB-0189","OBJECT_ID":"2021-031H","EPOCH":"2025-08-13T02:44:49.838208","MEAN_MOTION":13.14501746,"ECCENTRICITY":0.0001435,"INCLINATION":87.9077,"RA_OF_ASC_NODE":351.0051,"ARG_OF_PERICENTER":94.1769,"MEAN_ANOMALY":265.9525,"EPHEMERIS_TYPE":0,"CLASSIFICATION_TYPE":"U","NORAD_CAT_ID":48217,"ELEMENT_SET_NO":999,"REV_AT_EPOCH":20775,"BSTAR":0.00034264,"MEAN_MOTION_DOT":1.4e-6,"MEAN_MOTION_DDOT":0},{"OBJECT_NAME":"ONEWEB-0196","OBJECT_ID":"2021-031J","EPOCH":"2025-08-13T07:41:41.368416","MEAN_MOTION":13.14503473,"ECCENTRICITY":0.0001678,"INCLINATION":87.9082,"RA_OF_ASC_NODE":350.9774,"ARG_OF_PERICENTER":98.9204,"MEAN_ANOMALY":261.2116,"EPHEMERIS_TYPE":0,"CLASSIFICATION_TYPE":"U","NORAD_CAT_ID":48218,"ELEMENT_SET_NO":999,"REV_AT_EPOCH":20778,"BSTAR":-2.2809e-5,"MEAN_MOTION_DOT":4.0e-8,"MEAN_MOTION_DDOT":0}]
