ONEWEB-0171             
1 48070U 21025AE  25225.48933826  .00000228  00000+0  58987-3 0  9999
2 48070  87.8979  21.3744 0001748  90.8556 269.2774 13.13470522213228
ONEWEB-0172             
1 48071U 21025AF  25225.46900862 -.00000195  00000+0 -56771-3 0  9996
2 48071  87.8985  21.3451 0001649  90.6387 269.4931 13.13471718214115
ONEWEB-0174             
1 48072U 21025AG  25225.45041317 -.00000183  00000+0 -53598-3 0  9998
2 48072  87.8984  21.3620 0001712  98.7418 261.3905 13.13467018213432
ONEWEB-0175             
1 48073U 21025AH  25225.48086601  .00000066  00000+0  14596-3 0  9990
2 48073  87.8982  21.3206 0001774  83.1246 277.0085 13.13471114213093
ONEWEB-0177             
1 48074U 21025AJ  25225.49271399  .00000244  00000+0  63325-3 0  9994
2 48074  87.8987  21.3338 0001628  98.7565 261.3749 13.13470265213289
ONEWEB-0178             
1 48075U 21025AK  25225.43528442  .00000172  00000+0  43547-3 0  9997
2 48075  87.8984  21.3908 0001508  86.1955 273.9346 13.13470997213320
ONEWEB-0108             
1 48076U 21025AL  25225.47070810 -.00000221  00000+0 -63945-3 0  9994
2 48076  87.8980  21.3319 0001973  97.8695 262.2658 13.13470364213256
ONEWEB-0169             
1 48077U 21025AM  25225.42670059  .00000424  00000+0  11253-2 0  9998
2 48077  87.8985  21.3625 0001979  97.9902 262.1452 13.13470960211903
ONEWEB-0176             
1 48210U 21031A   25225.58702039  .00000105  00000+0  24850-3 0  9999
2 48210  87.9077 350.9174 0001747  94.7780 265.3549 13.14501833207909
ONEWEB-0184             
1 48211U 21031B   25225.33170898  .00000172  00000+0  43084-3 0  9999
2 48211  87.9081 350.9375 0001581  68.7299 291.3999 13.14502778207840
ONEWEB-0179             
1 48212U 21031C   25225.60683471 -.00000145  00000+0 -42680-3 0  9999
2 48212  87.9075 350.9010 0001793 100.7474 259.3858 13.14503107207921
ONEWEB-0180             
1 48213U 21031D   25225.33489120  .00000206  00000+0  52039-3 0  9990
2 48213  87.9081 350.9422 0001535  99.1376 260.9928 13.14502752207776
ONEWEB-0218             
1 48214U 21031E   25225.58542669  .00000097  00000+0  22725-3 0  9993
2 48214  87.9083 350.8933 0001307  68.9511 291.1759 13.14501290207962
ONEWEB-0209             
1 48215U 21031F   25225.34597483  .00000239  00000+0  61110-3 0  9991
2 48215  87.9084 350.9851 0001713 102.4318 257.7004 13.14501598207933
ONEWEB-0198             
1 48216U 21031G   25225.33013647  .00000198  00000+0  49979-3 0  9999
2 48216  87.9077 350.9889 0001390  94.3529 265.7759 13.14503755208047
ONEWEB-0189             
1 48217U 21031H   25225.11446572  .00000140  00000+0  34264-3 0  9991
2 48217  87.9077 351.0051 0001435  94.1769 265.9525 13.14501746207753
ONEWEB-0196             
1 48218U 21031J   25225.32061769  .00000004  00000+0 -22809-4 0  9999
2 48218  87.9082 350.9774 0001678  98.9204 261.2116 13.14503473207782
